0 IRIDIUM 33 DEB
1 35806U 97051SQ  13281.34921902  .00001362  00000-0  48399-3 0  2271
2 35806 086.3502 125.0511 0017695 330.9596 029.0614 14.33624707223147
0 IRIDIUM 33 DEB
1 35806U 97051SQ  13282.81495804  .00001378  00000-0  48967-3 0  2280
2 35806 086.3500 124.4314 0017564 325.8600 034.1464 14.33633352223352
0 IRIDIUM 33 DEB
1 35806U 97051SQ  13285.81621407  .00001584  00000-0  56392-3 0  2294
2 35806 086.3496 123.1622 0017314 315.2643 044.7155 14.33641590223781
0 IRIDIUM 33 DEB
1 35806U 97051SQ  13287.28193712  .00001790  00000-0  63822-3 0  2307
2 35806 086.3495 122.5424 0017217 310.0149 049.9535 14.33646278223999
0 IRIDIUM 33 DEB
1 35806U 97051SQ  13289.79459088  .00002028  00000-0  72390-3 0  2312
2 35806 086.3496 121.4799 0017124 300.9588 058.9924 14.33659680224359
0 IRIDIUM 33 DEB
1 35806U 97051SQ  13291.26029619  .00002021  00000-0  72121-3 0  2326
2 35806 086.3495 120.8599 0017055 295.6277 064.3156 14.33664281224561
0 IRIDIUM 33 DEB
1 35806U 97051SQ  13293.28435634  .00002342  00000-0  83670-3 0  2336
2 35806 086.3496 120.0038 0017019 288.3262 071.6082 14.33671697224855
0 IRIDIUM 33 DEB
1 35806U 97051SQ  13294.81984348  .00002508  00000-0  89627-3 0  2340
2 35806 086.3497 119.3545 0017038 282.8080 077.1211 14.33679105225070
